     3.03           N: GNSS NAV DATA    M: Mixed            RINEX VERSION / TYPE
RTKCONV demo5 b34f.1                    20230902 150346 UTC PGM / RUN BY / DATE 
format: u-blox UBX                                          COMMENT             
log: C:\Users\oo\Desktop\log_gnss_02062023-02-41-59.ubx     COMMENT             
                                                            END OF HEADER       
G04 2023 09 02 12 00 00  .144032295793D-03  .112549969344D-10  .000000000000D+00
      .206000000000D+03 -.816250000000D+02  .459340561950D-08 -.220091932805D+01
     -.426359474659D-05  .253090390470D-02  .714883208275D-05  .515362912941D+04
      .561600000000D+06 -.298023223877D-07  .274981087712D+01 -.502914190292D-07
      .963594292359D+00  .241843750000D+03 -.303380047685D+01 -.821427072878D-08
     -.544665544649D-09  .100000000000D+01  .227700000000D+04  .000000000000D+00
      .200000000000D+01  .000000000000D+00 -.419095158577D-08  .206000000000D+03
      .556956000000D+06  .400000000000D+01
G17 2023 09 02 12 00 00  .723430886865D-03  .341060513165D-12  .000000000000D+00
      .100000000000D+03 -.785937500000D+02  .450875923649D-08 -.185519879419D+01
     -.368617475033D-05  .136968200095D-01  .740960240364D-05  .515356944656D+04
      .561600000000D+06  .372529029846D-08 -.364579930995D+00  .322237610817D-06
      .972984788379D+00  .240218750000D+03 -.140297992784D+01 -.802354849872D-08
     -.376087094108D-09  .100000000000D+01  .227700000000D+04  .000000000000D+00
      .200000000000D+01  .000000000000D+00 -.111758708954D-07  .100000000000D+03
      .556956000000D+06  .400000000000D+01
G19 2023 09 02 12 00 00  .365996267647D-03  .522959453519D-11  .000000000000D+00
      .740000000000D+02 -.806562500000D+02  .459161983082D-08  .247275893085D+00
     -.425241887569D-05  .943385506980D-02  .773370265961D-05  .515364006805D+04
      .561600000000D+06 -.409781932831D-07 -.320130879696D+00 -.856816768646D-07
      .972115123080D+00  .236406250000D+03  .240306597145D+01 -.830498879326D-08
     -.378587198248D-09  .100000000000D+01  .227700000000D+04  .000000000000D+00
      .200000000000D+01  .000000000000D+00 -.153668224812D-07  .740000000000D+02
      .556956000000D+06  .400000000000D+01
G01 2023 09 02 12 00 00  .166573096067D-03 -.113686837722D-11  .000000000000D+00
      .920000000000D+02  .124062500000D+02  .363407994545D-08  .227273603342D+01
      .521540641785D-06  .128777642967D-01  .127591192722D-04  .515364338303D+04
      .561600000000D+06 -.633299350739D-07  .639174201222D+00 -.260770320892D-06
      .990470597602D+00  .148468750000D+03  .992892111770D+00 -.739709383294D-08
      .187150652719D-09  .100000000000D+01  .227700000000D+04  .000000000000D+00
      .280000000000D+01  .630000000000D+02  .512227416039D-08  .920000000000D+02
      .556956000000D+06  .400000000000D+01
G02 2023 09 02 12 00 00 -.558621715754D-03  .432009983342D-11  .000000000000D+00
      .930000000000D+02  .123750000000D+02  .419838916547D-08 -.131776498337D+01
      .778585672379D-06  .159840347478D-01  .129081308842D-04  .515354438210D+04
      .561600000000D+06 -.335276126862D-06  .538471413267D+00  .247731804848D-06
      .967812290409D+00  .141812500000D+03 -.134766754532D+01 -.796676041898D-08
      .103575742917D-09  .100000000000D+01  .227700000000D+04  .000000000000D+00
      .200000000000D+01  .000000000000D+00 -.176951289177D-07  .930000000000D+02
      .556956000000D+06  .400000000000D+01
G09 2023 09 02 12 00 00 -.705760903656D-04  .101181285572D-10  .000000000000D+00
      .610000000000D+02 -.789375000000D+02  .485127350359D-08 -.130264692315D+01
     -.415556132793D-05  .268805830274D-02  .638701021671D-05  .515355158615D+04
      .561600000000D+06 -.987201929092D-07  .269236117128D+01  .745058059692D-08
      .956916716474D+00  .252312500000D+03  .194350023541D+01 -.839177812267D-08
     -.580738475803D-09  .100000000000D+01  .227700000000D+04  .000000000000D+00
      .200000000000D+01  .000000000000D+00  .931322574615D-09  .610000000000D+02
      .556956000000D+06  .400000000000D+01
G31 2023 09 02 12 00 00 -.222787726671D-03 -.568434188608D-12  .000000000000D+00
      .102000000000D+03  .202187500000D+02  .423589072757D-08  .734249552944D+00
      .138580799103D-05  .104164625518D-01  .128746032715D-04  .515362331581D+04
      .561600000000D+06 -.180676579475D-06 -.249897149992D+01  .216066837311D-06
      .954714790697D+00  .129562500000D+03  .576219266943D+00 -.793140180329D-08
      .271439877989D-10  .100000000000D+01  .227700000000D+04  .000000000000D+00
      .200000000000D+01  .000000000000D+00 -.130385160446D-07  .102000000000D+03
      .556956000000D+06  .400000000000D+01
G06 2023 09 02 12 00 00  .557113438845D-03 -.613908923697D-11  .000000000000D+00
      .102000000000D+03  .147812500000D+02  .378480050928D-08  .248888769776D+01
      .879168510437D-06  .272467418108D-02  .132378190756D-04  .515373674965D+04
      .561600000000D+06  .109896063805D-06  .630841886514D+00  .465661287308D-07
      .989650735886D+00  .137937500000D+03 -.796591719117D+00 -.760281668783D-08
      .123219418298D-09  .100000000000D+01  .227700000000D+04  .000000000000D+00
      .200000000000D+01  .000000000000D+00  .372529029846D-08  .102000000000D+03
      .556956000000D+06  .400000000000D+01
G21 2023 09 02 12 00 00  .149678438902D-03 -.682121026330D-12  .000000000000D+00
      .135000000000D+03  .135937500000D+02  .422981904608D-08 -.184007163170D+01
      .692903995514D-06  .247538926778D-01  .135339796543D-04  .515358952522D+04
      .561600000000D+06 -.655651092529D-06  .532876295819D+00  .968575477600D-07
      .962104008934D+00  .128187500000D+03 -.712596105162D+00 -.791711549392D-08
      .131434046184D-09  .100000000000D+01  .227700000000D+04  .000000000000D+00
      .200000000000D+01  .000000000000D+00 -.102445483208D-07  .135000000000D+03
      .556956000000D+06  .400000000000D+01
G28 2023 09 02 12 00 00 -.461284071207D-05 -.454747350886D-11  .000000000000D+00
      .132000000000D+03  .984375000000D+01  .400730977768D-08  .190881055054D+00
      .700354576111D-06  .663759186864D-03  .139493495226D-04  .515374831963D+04
      .561600000000D+06 -.108033418655D-06 -.255554005362D+01 -.912696123123D-07
      .961838087000D+00  .112625000000D+03  .159766681109D+01 -.775996609088D-08
      .107147320259D-10  .100000000000D+01  .227700000000D+04  .000000000000D+00
      .200000000000D+01  .000000000000D+00 -.977888703346D-08  .132000000000D+03
      .556956000000D+06  .400000000000D+01
G03 2023 09 02 12 00 00 -.156615395099D-03  .196678229258D-10  .000000000000D+00
      .290000000000D+02  .524687500000D+02  .453626038202D-08  .107220661609D+01
      .272691249847D-05  .512278266251D-02  .532530248165D-05  .515360409355D+04
      .561600000000D+06 -.121071934700D-06  .166900494329D+01  .121071934700D-06
      .980043471979D+00  .287812500000D+03  .110277514662D+01 -.831284626341D-08
      .277154401736D-09  .100000000000D+01  .227700000000D+04  .000000000000D+00
      .200000000000D+01  .000000000000D+00  .186264514923D-08  .290000000000D+02
      .556986000000D+06  .400000000000D+01
G07 2023 09 02 11 59 44  .785328447819D-04 -.105728759081D-10  .000000000000D+00
      .680000000000D+02  .170625000000D+02  .436339603867D-08  .158351583188D+01
      .830739736557D-06  .175449562958D-01  .133085995913D-04  .515373541832D+04
      .561584000000D+06 -.366941094398D-06 -.251936603647D+01 -.132247805595D-06
      .950666205875D+00  .123218750000D+03 -.217471618017D+01 -.806569311135D-08
     -.117862052285D-10  .100000000000D+01  .227700000000D+04  .000000000000D+00
      .200000000000D+01  .000000000000D+00 -.111758708954D-07  .680000000000D+02
      .561366000000D+06  .400000000000D+01
G04 2023 09 02 14 00 00  .144113786519D-03  .112549969344D-10  .000000000000D+00
      .207000000000D+03 -.816250000000D+02  .467233747875D-08 -.115117386315D+01
     -.427849590778D-05  .253103009891D-02  .686198472977D-05  .515362689781D+04
      .568800000000D+06  .204890966415D-07  .274975186300D+01 -.912696123123D-07
      .963590300055D+00  .250250000000D+03 -.303333640851D+01 -.822927135361D-08
     -.578595529398D-09  .100000000000D+01  .227700000000D+04  .000000000000D+00
      .200000000000D+01  .000000000000D+00 -.419095158577D-08  .207000000000D+03
      .561606000000D+06  .400000000000D+01
G09 2023 09 02 14 00 00 -.705034472048D-04  .101181285572D-10  .000000000000D+00
      .620000000000D+02 -.784062500000D+02  .491199031840D-08 -.252415817721D+00
     -.406429171562D-05  .268767867237D-02  .628270208836D-05  .515355097961D+04
      .568800000000D+06 -.186264514923D-07  .269230028756D+01 -.242143869400D-07
      .956912651024D+00  .256250000000D+03  .194352736815D+01 -.843177978890D-08
     -.538951020902D-09  .100000000000D+01  .227700000000D+04  .000000000000D+00
      .200000000000D+01  .000000000000D+00  .931322574615D-09  .620000000000D+02
      .561606000000D+06  .400000000000D+01
G06 2023 09 02 14 00 00  .557069201022D-03 -.613908923697D-11  .000000000000D+00
      .106000000000D+03  .990625000000D+01  .374801326265D-08 -.274392857130D+01
      .609084963799D-06  .272429105826D-02  .128336250782D-04  .515373730659D+04
      .568800000000D+06 -.465661287308D-07  .630786883720D+00  .447034835815D-07
      .989652247080D+00  .147062500000D+03 -.796822797268D+00 -.753424240287D-08
      .220009164265D-09  .100000000000D+01  .227700000000D+04  .000000000000D+00
      .200000000000D+01  .000000000000D+00  .372529029846D-08  .106000000000D+03
      .561606000000D+06  .400000000000D+01
